start=new Date('2023-03-28T00:00:00.000Z').valueOf();
sats=[{"SEMIMAJOR_AXIS":"6917.900","RA_OF_ASC_NODE":"119.0414","SITE":"AFETR","RCS_SIZE":"LARGE","INCLINATION":"53.2168","CENTER_NAME":"EARTH","MEAN_ANOMALY":"351.4674","COUNTRY_CODE":"US","ELEMENT_SET_NO":"999","ECCENTRICITY":"0.00045970","MEAN_MOTION_DOT":"-0.00001874","ARG_OF_PERICENTER":"8.6396","LAUNCH_DATE":"2022-02-21","MEAN_MOTION":"15.08833692","TIME_SYSTEM":"UTC","NORAD_CAT_ID":"51729","FILE":"3872569","EPOCH":"2023-03-27T13:29:03.548832","PERIAPSIS":"536.585","REV_AT_EPOCH":"6080","MEAN_MOTION_DDOT":"0.0000000000000","CLASSIFICATION_TYPE":"U","DECAY_DATE":null,"TLE_LINE2":"2 51729  53.2168 119.0414 0004597   8.6396 351.4674 15.08833692 60807","EPHEMERIS_TYPE":"0","GP_ID":"228959507","OBJECT_NAME":"STARLINK-3523","MEAN_ELEMENT_THEORY":"SGP4","PERIOD":"95.438","APOAPSIS":"542.945","TLE_LINE1":"1 51729U 22016R   23086.56184663 -.00001874  00000-0 -99584-4 0  9994","OBJECT_TYPE":"PAYLOAD","BSTAR":"-0.00009958400000","OBJECT_ID":"2022-016R","REF_FRAME":"TEME"},{"LAUNCH_DATE":"2022-02-21","MEAN_MOTION":"15.08851593","FILE":"3872915","TIME_SYSTEM":"UTC","NORAD_CAT_ID":"51730","REV_AT_EPOCH":"6084","EPOCH":"2023-03-27T19:24:06.508224","PERIAPSIS":"538.775","CLASSIFICATION_TYPE":"U","MEAN_MOTION_DDOT":"0.0000000000000","RA_OF_ASC_NODE":"117.9176","SITE":"AFETR","SEMIMAJOR_AXIS":"6917.845","INCLINATION":"53.2168","RCS_SIZE":"LARGE","CENTER_NAME":"EARTH","ELEMENT_SET_NO":"999","ECCENTRICITY":"0.00013520","MEAN_ANOMALY":"279.8997","COUNTRY_CODE":"US","ARG_OF_PERICENTER":"80.2148","MEAN_MOTION_DOT":"0.00003561","PERIOD":"95.437","APOAPSIS":"540.645","TLE_LINE1":"1 51730U 22016S   23086.80840866  .00003561  00000-0  24164-3 0  9991","OBJECT_TYPE":"PAYLOAD","OBJECT_ID":"2022-016S","BSTAR":"0.00024164000000","REF_FRAME":"TEME","TLE_LINE2":"2 51730  53.2168 117.9176 0001352  80.2148 279.8997 15.08851593 60843","DECAY_DATE":null,"EPHEMERIS_TYPE":"0","GP_ID":"228992963","OBJECT_NAME":"STARLINK-3530","MEAN_ELEMENT_THEORY":"SGP4"},{"MEAN_ELEMENT_THEORY":"SGP4","OBJECT_NAME":"STARLINK-3514","GP_ID":"228969368","EPHEMERIS_TYPE":"0","DECAY_DATE":null,"TLE_LINE2":"2 51731  53.2142 119.0564 0001259  73.7197 286.3934 15.08875816 61914","REF_FRAME":"TEME","OBJECT_ID":"2022-016T","OBJECT_TYPE":"PAYLOAD","BSTAR":"0.00179870000000","TLE_LINE1":"1 51731U 22016T   23086.55450485  .00028482  00000-0  17987-2 0  9991","APOAPSIS":"540.507","PERIOD":"95.435","MEAN_MOTION_DOT":"0.00028482","ARG_OF_PERICENTER":"73.7197","COUNTRY_CODE":"US","MEAN_ANOMALY":"286.3934","ECCENTRICITY":"0.00012590","ELEMENT_SET_NO":"999","CENTER_NAME":"EARTH","RCS_SIZE":"LARGE","INCLINATION":"53.2142","SEMIMAJOR_AXIS":"6917.771","SITE":"AFETR","RA_OF_ASC_NODE":"119.0564","MEAN_MOTION_DDOT":"0.0000000000000","CLASSIFICATION_TYPE":"U","PERIAPSIS":"538.765","EPOCH":"2023-03-27T13:18:29.219040","REV_AT_EPOCH":"6191","NORAD_CAT_ID":"51731","TIME_SYSTEM":"UTC","FILE":"3872880","MEAN_MOTION":"15.08875816","LAUNCH_DATE":"2022-02-21"},{"DECAY_DATE":null,"TLE_LINE2":"2 51732  53.2131 117.9354 0001425  81.7448 278.3705 15.08866238 61982","MEAN_ELEMENT_THEORY":"SGP4","OBJECT_NAME":"STARLINK-3518","GP_ID":"228993964","EPHEMERIS_TYPE":"0","APOAPSIS":"540.651","PERIOD":"95.436","REF_FRAME":"TEME","BSTAR":"0.00067944000000","OBJECT_TYPE":"PAYLOAD","OBJECT_ID":"2022-016U","TLE_LINE1":"1 51732U 22016U   23086.80472597  .00010550  00000-0  67944-3 0  9994","CENTER_NAME":"EARTH","RCS_SIZE":"MEDIUM","INCLINATION":"53.2131","SEMIMAJOR_AXIS":"6917.800","SITE":"AFETR","RA_OF_ASC_NODE":"117.9354","MEAN_MOTION_DOT":"0.00010550","ARG_OF_PERICENTER":"81.7448","COUNTRY_CODE":"US","MEAN_ANOMALY":"278.3705","ECCENTRICITY":"0.00014250","ELEMENT_SET_NO":"999","NORAD_CAT_ID":"51732","TIME_SYSTEM":"UTC","FILE":"3872915","MEAN_MOTION":"15.08866238","LAUNCH_DATE":"2022-02-21","MEAN_MOTION_DDOT":"0.0000000000000","CLASSIFICATION_TYPE":"U","EPOCH":"2023-03-27T19:18:48.323808","PERIAPSIS":"538.679","REV_AT_EPOCH":"6198"},{"ELEMENT_SET_NO":"999","ECCENTRICITY":"0.00016110","MEAN_ANOMALY":"251.4341","COUNTRY_CODE":"US","ARG_OF_PERICENTER":"108.6826","MEAN_MOTION_DOT":"0.00024199","RA_OF_ASC_NODE":"119.6839","SITE":"AFETR","SEMIMAJOR_AXIS":"6917.755","RCS_SIZE":"LARGE","INCLINATION":"53.2140","CENTER_NAME":"EARTH","REV_AT_EPOCH":"6078","EPOCH":"2023-03-27T09:57:05.812704","PERIAPSIS":"538.506","CLASSIFICATION_TYPE":"U","MEAN_MOTION_DDOT":"0.0000000000000","LAUNCH_DATE":"2022-02-21","MEAN_MOTION":"15.08880860","FILE":"3872569","NORAD_CAT_ID":"51733","TIME_SYSTEM":"UTC","EPHEMERIS_TYPE":"0","OBJECT_NAME":"STARLINK-3525","GP_ID":"228959009","MEAN_ELEMENT_THEORY":"SGP4","TLE_LINE2":"2 51733  53.2140 119.6839 0001611 108.6826 251.4341 15.08880860 60788","DECAY_DATE":null,"TLE_LINE1":"1 51733U 22016V   23086.41465061  .00024199  00000-0  15316-2 0  9999","OBJECT_TYPE":"PAYLOAD","BSTAR":"0.00153160000000","OBJECT_ID":"2022-016V","REF_FRAME":"TEME","PERIOD":"95.435","APOAPSIS":"540.735"},{"MEAN_ANOMALY":"280.0674","COUNTRY_CODE":"US","ELEMENT_SET_NO":"999","ECCENTRICITY":"0.00013800","MEAN_MOTION_DOT":"0.00004575","ARG_OF_PERICENTER":"80.0474","SEMIMAJOR_AXIS":"6917.869","RA_OF_ASC_NODE":"117.9813","SITE":"AFETR","RCS_SIZE":"LARGE","INCLINATION":"53.2137","CENTER_NAME":"EARTH","EPOCH":"2023-03-27T19:02:54.112704","PERIAPSIS":"538.779","REV_AT_EPOCH":"6083","MEAN_MOTION_DDOT":"0.0000000000000","CLASSIFICATION_TYPE":"U","LAUNCH_DATE":"2022-02-21","MEAN_MOTION":"15.08843813","NORAD_CAT_ID":"51734","TIME_SYSTEM":"UTC","FILE":"3872915","EPHEMERIS_TYPE":"0","OBJECT_NAME":"STARLINK-3450","GP_ID":"228993463","MEAN_ELEMENT_THEORY":"SGP4","DECAY_DATE":null,"TLE_LINE2":"2 51734  53.2137 117.9813 0001380  80.0474 280.0674 15.08843813 60833","TLE_LINE1":"1 51734U 22016W   23086.79368186  .00004575  00000-0  30532-3 0  9995","OBJECT_TYPE":"PAYLOAD","OBJECT_ID":"2022-016W","BSTAR":"0.00030532000000","REF_FRAME":"TEME","APOAPSIS":"540.688","PERIOD":"95.437"},{"MEAN_MOTION_DOT":"0.00013564","ARG_OF_PERICENTER":"77.5338","COUNTRY_CODE":"US","MEAN_ANOMALY":"282.5837","ECCENTRICITY":"0.00016360","ELEMENT_SET_NO":"999","CENTER_NAME":"EARTH","INCLINATION":"53.2140","RCS_SIZE":"LARGE","SEMIMAJOR_AXIS":"6917.807","SITE":"AFETR","RA_OF_ASC_NODE":"117.9497","MEAN_MOTION_DDOT":"0.0000000000000","CLASSIFICATION_TYPE":"U","EPOCH":"2023-03-27T19:13:30.216288","PERIAPSIS":"538.540","REV_AT_EPOCH":"6084","TIME_SYSTEM":"UTC","NORAD_CAT_ID":"51735","FILE":"3872915","MEAN_MOTION":"15.08863974","LAUNCH_DATE":"2022-02-21","MEAN_ELEMENT_THEORY":"SGP4","GP_ID":"228993714","OBJECT_NAME":"STARLINK-3517","EPHEMERIS_TYPE":"0","DECAY_DATE":null,"TLE_LINE2":"2 51735  53.2140 117.9497 0001636  77.5338 282.5837 15.08863974 60849","REF_FRAME":"TEME","OBJECT_TYPE":"PAYLOAD","OBJECT_ID":"2022-016X","BSTAR":"0.00086808000000","TLE_LINE1":"1 51735U 22016X   23086.80104417  .00013564  00000-0  86808-3 0  9998","APOAPSIS":"540.804","PERIOD":"95.436"},{"PERIOD":"95.437","APOAPSIS":"540.705","TLE_LINE1":"1 51736U 22016Y   23086.78632243  .00012382  00000-0  79462-3 0  9994","OBJECT_TYPE":"PAYLOAD","OBJECT_ID":"2022-016Y","BSTAR":"0.00079462000000","REF_FRAME":"TEME","DECAY_DATE":null,"TLE_LINE2":"2 51736  53.2154 118.0151 0001394  71.3331 288.7813 15.08841643 60830","EPHEMERIS_TYPE":"0","GP_ID":"228994464","OBJECT_NAME":"STARLINK-3447","MEAN_ELEMENT_THEORY":"SGP4","LAUNCH_DATE":"2022-02-21","MEAN_MOTION":"15.08841643","TIME_SYSTEM":"UTC","NORAD_CAT_ID":"51736","FILE":"3872915","EPOCH":"2023-03-27T18:52:18.257952","PERIAPSIS":"538.776","REV_AT_EPOCH":"6083","MEAN_MOTION_DDOT":"0.0000000000000","CLASSIFICATION_TYPE":"U","SEMIMAJOR_AXIS":"6917.875","RA_OF_ASC_NODE":"118.0151","SITE":"AFETR","RCS_SIZE":"LARGE","INCLINATION":"53.2154","CENTER_NAME":"EARTH","MEAN_ANOMALY":"288.7813","COUNTRY_CODE":"US","ELEMENT_SET_NO":"999","ECCENTRICITY":"0.00013940","MEAN_MOTION_DOT":"0.00012382","ARG_OF_PERICENTER":"71.3331"},{"OBJECT_NAME":"STARLINK-3509","GP_ID":"228992714","EPHEMERIS_TYPE":"0","MEAN_ELEMENT_THEORY":"SGP4","TLE_LINE2":"2 51737  53.2148 117.9656 0001041 100.2327 259.8783 15.08871324 60832","DECAY_DATE":null,"TLE_LINE1":"1 51737U 22016Z   23086.79736295  .00015598  00000-0  99511-3 0  9997","REF_FRAME":"TEME","OBJECT_TYPE":"PAYLOAD","OBJECT_ID":"2022-016Z","BSTAR":"0.00099511000000","APOAPSIS":"540.370","PERIOD":"95.436","ECCENTRICITY":"0.00010410","ELEMENT_SET_NO":"999","COUNTRY_CODE":"US","MEAN_ANOMALY":"259.8783","ARG_OF_PERICENTER":"100.2327","MEAN_MOTION_DOT":"0.00015598","SITE":"AFETR","RA_OF_ASC_NODE":"117.9656","SEMIMAJOR_AXIS":"6917.785","CENTER_NAME":"EARTH","RCS_SIZE":"LARGE","INCLINATION":"53.2148","REV_AT_EPOCH":"6083","PERIAPSIS":"538.930","EPOCH":"2023-03-27T19:08:12.158880","CLASSIFICATION_TYPE":"U","MEAN_MOTION_DDOT":"0.0000000000000","MEAN_MOTION":"15.08871324","LAUNCH_DATE":"2022-02-21","FILE":"3872915","TIME_SYSTEM":"UTC","NORAD_CAT_ID":"51737"},{"INCLINATION":"53.2154","RCS_SIZE":"LARGE","CENTER_NAME":"EARTH","SEMIMAJOR_AXIS":"6917.805","RA_OF_ASC_NODE":"118.0492","SITE":"AFETR","MEAN_MOTION_DOT":"0.00009982","ARG_OF_PERICENTER":"114.1565","MEAN_ANOMALY":"245.9570","COUNTRY_CODE":"US","ELEMENT_SET_NO":"999","ECCENTRICITY":"0.00013610","TIME_SYSTEM":"UTC","NORAD_CAT_ID":"51738","FILE":"3872915","LAUNCH_DATE":"2022-02-21","MEAN_MOTION":"15.08864827","MEAN_MOTION_DDOT":"0.0000000000000","CLASSIFICATION_TYPE":"U","PERIAPSIS":"538.728","EPOCH":"2023-03-27T18:41:42.267552","REV_AT_EPOCH":"6083","DECAY_DATE":null,"TLE_LINE2":"2 51738  53.2154 118.0492 0001361 114.1565 245.9570 15.08864827 60833","MEAN_ELEMENT_THEORY":"SGP4","EPHEMERIS_TYPE":"0","GP_ID":"228992964","OBJECT_NAME":"STARLINK-3515","PERIOD":"95.436","APOAPSIS":"540.611","OBJECT_TYPE":"PAYLOAD","OBJECT_ID":"2022-016AA","BSTAR":"0.00064394000000","REF_FRAME":"TEME","TLE_LINE1":"1 51738U 22016AA  23086.77896143  .00009982  00000-0  64394-3 0  9996"}];
